start=new Date('2022-08-27T00:00:00.000Z').valueOf();
sats=[{"TLE_LINE1":"1 47636U 21012S   22238.94384173  .00001353  00000-0  10971-3 0  9991","COUNTRY_CODE":"US","ARG_OF_PERICENTER":"100.5237","BSTAR":"0.00010971000000","LAUNCH_DATE":"2021-02-16","PERIAPSIS":"546.267","REV_AT_EPOCH":"8571","OBJECT_ID":"2021-012S","RCS_SIZE":"LARGE","TLE_LINE2":"2 47636  53.0551  86.0110 0001378 100.5237 259.5907 15.06397527 85713","GP_ID":"211077607","MEAN_MOTION_DDOT":"0.0000000000000","EPHEMERIS_TYPE":"0","RA_OF_ASC_NODE":"86.0110","NORAD_CAT_ID":"47636","MEAN_MOTION_DOT":"0.00001353","SEMIMAJOR_AXIS":"6925.356","INCLINATION":"53.0551","OBJECT_NAME":"STARLINK-2013","ELEMENT_SET_NO":"999","PERIOD":"95.592","TIME_SYSTEM":"UTC","MEAN_ELEMENT_THEORY":"SGP4","FILE":"3548620","DECAY_DATE":null,"SITE":"AFETR","MEAN_ANOMALY":"259.5907","ECCENTRICITY":"0.00013780","OBJECT_TYPE":"PAYLOAD","APOAPSIS":"548.175","CENTER_NAME":"EARTH","EPOCH":"2022-08-26T22:39:07.925472","CLASSIFICATION_TYPE":"U","REF_FRAME":"TEME","MEAN_MOTION":"15.06397527"},{"MEAN_MOTION_DOT":"-0.00000339","SEMIMAJOR_AXIS":"6925.339","INCLINATION":"53.0542","OBJECT_NAME":"STARLINK-2014","NORAD_CAT_ID":"47637","GP_ID":"211076863","MEAN_MOTION_DDOT":"0.0000000000000","RA_OF_ASC_NODE":"87.0340","EPHEMERIS_TYPE":"0","TLE_LINE2":"2 47637  53.0542  87.0340 0001461  84.6676 275.4480 15.06403229 85699","PERIAPSIS":"546.192","OBJECT_ID":"2021-012T","REV_AT_EPOCH":"8569","RCS_SIZE":"LARGE","BSTAR":"-0.00000387160000","LAUNCH_DATE":"2021-02-16","COUNTRY_CODE":"US","TLE_LINE1":"1 47637U 21012T   22238.71530739 -.00000339  00000-0 -38716-5 0  9992","ARG_OF_PERICENTER":"84.6676","MEAN_MOTION":"15.06403229","REF_FRAME":"TEME","EPOCH":"2022-08-26T17:10:02.558496","CLASSIFICATION_TYPE":"U","APOAPSIS":"548.215","CENTER_NAME":"EARTH","ECCENTRICITY":"0.00014610","OBJECT_TYPE":"PAYLOAD","SITE":"AFETR","FILE":"3548620","DECAY_DATE":null,"MEAN_ANOMALY":"275.4480","MEAN_ELEMENT_THEORY":"SGP4","TIME_SYSTEM":"UTC","ELEMENT_SET_NO":"999","PERIOD":"95.592"},{"GP_ID":"211077113","MEAN_MOTION_DDOT":"0.0000000000000","RA_OF_ASC_NODE":"11.1354","EPHEMERIS_TYPE":"0","TLE_LINE2":"2 47638  53.0559  11.1354 0001269  93.8042 266.3092 15.06393077 86740","MEAN_MOTION_DOT":"-0.00000097","SEMIMAJOR_AXIS":"6925.370","OBJECT_NAME":"STARLINK-2015","INCLINATION":"53.0559","NORAD_CAT_ID":"47638","BSTAR":"0.00001235200000","LAUNCH_DATE":"2021-02-16","TLE_LINE1":"1 47638U 21012U   22238.91204417 -.00000097  00000-0  12352-4 0  9993","COUNTRY_CODE":"US","ARG_OF_PERICENTER":"93.8042","PERIAPSIS":"546.356","REV_AT_EPOCH":"8674","OBJECT_ID":"2021-012U","RCS_SIZE":"LARGE","APOAPSIS":"548.114","CENTER_NAME":"EARTH","ECCENTRICITY":"0.00012690","OBJECT_TYPE":"PAYLOAD","REF_FRAME":"TEME","MEAN_MOTION":"15.06393077","EPOCH":"2022-08-26T21:53:20.616288","CLASSIFICATION_TYPE":"U","TIME_SYSTEM":"UTC","ELEMENT_SET_NO":"999","PERIOD":"95.593","FILE":"3548620","SITE":"AFETR","DECAY_DATE":null,"MEAN_ANOMALY":"266.3092","MEAN_ELEMENT_THEORY":"SGP4"},{"PERIAPSIS":"546.059","REV_AT_EPOCH":"8569","OBJECT_ID":"2021-012V","RCS_SIZE":"LARGE","TLE_LINE1":"1 47639U 21012V   22238.89223387  .00000439  00000-0  48377-4 0  9993","COUNTRY_CODE":"US","ARG_OF_PERICENTER":"84.7040","BSTAR":"0.00004837700000","LAUNCH_DATE":"2021-02-16","NORAD_CAT_ID":"47639","MEAN_MOTION_DOT":"0.00000439","SEMIMAJOR_AXIS":"6925.344","INCLINATION":"53.0546","OBJECT_NAME":"STARLINK-2016","TLE_LINE2":"2 47639  53.0546  86.2425 0001661  84.7040 275.4139 15.06401494 85691","GP_ID":"211077364","MEAN_MOTION_DDOT":"0.0000000000000","RA_OF_ASC_NODE":"86.2425","EPHEMERIS_TYPE":"0","MEAN_ELEMENT_THEORY":"SGP4","SITE":"AFETR","FILE":"3548620","DECAY_DATE":null,"MEAN_ANOMALY":"275.4139","ELEMENT_SET_NO":"999","PERIOD":"95.592","TIME_SYSTEM":"UTC","EPOCH":"2022-08-26T21:24:49.006368","CLASSIFICATION_TYPE":"U","MEAN_MOTION":"15.06401494","REF_FRAME":"TEME","ECCENTRICITY":"0.00016610","OBJECT_TYPE":"PAYLOAD","APOAPSIS":"548.359","CENTER_NAME":"EARTH"},{"GP_ID":"211078108","MEAN_MOTION_DDOT":"0.0000000000000","RA_OF_ASC_NODE":"106.8510","EPHEMERIS_TYPE":"0","TLE_LINE2":"2 47640  53.0545 106.8510 0001724  82.4821 277.6363 15.06402888 85419","MEAN_MOTION_DOT":"0.00002658","SEMIMAJOR_AXIS":"6925.340","INCLINATION":"53.0545","OBJECT_NAME":"STARLINK-2018","NORAD_CAT_ID":"47640","BSTAR":"0.00019726000000","LAUNCH_DATE":"2021-02-16","COUNTRY_CODE":"US","TLE_LINE1":"1 47640U 21012W   22238.75400974  .00002658  00000-0  19726-3 0  9999","ARG_OF_PERICENTER":"82.4821","REV_AT_EPOCH":"8541","PERIAPSIS":"546.011","OBJECT_ID":"2021-012W","RCS_SIZE":"LARGE","APOAPSIS":"548.399","CENTER_NAME":"EARTH","OBJECT_TYPE":"PAYLOAD","ECCENTRICITY":"0.00017240","MEAN_MOTION":"15.06402888","REF_FRAME":"TEME","EPOCH":"2022-08-26T18:05:46.441536","CLASSIFICATION_TYPE":"U","TIME_SYSTEM":"UTC","ELEMENT_SET_NO":"999","PERIOD":"95.592","SITE":"AFETR","FILE":"3548620","DECAY_DATE":null,"MEAN_ANOMALY":"277.6363","MEAN_ELEMENT_THEORY":"SGP4"},{"MEAN_ELEMENT_THEORY":"SGP4","FILE":"3548490","SITE":"AFETR","DECAY_DATE":null,"MEAN_ANOMALY":"268.7306","ELEMENT_SET_NO":"999","PERIOD":"95.592","TIME_SYSTEM":"UTC","EPOCH":"2022-08-26T18:21:02.145024","CLASSIFICATION_TYPE":"U","MEAN_MOTION":"15.06398201","REF_FRAME":"TEME","ECCENTRICITY":"0.00012930","OBJECT_TYPE":"PAYLOAD","APOAPSIS":"548.115","CENTER_NAME":"EARTH","PERIAPSIS":"546.324","OBJECT_ID":"2021-012X","REV_AT_EPOCH":"8622","RCS_SIZE":"LARGE","TLE_LINE1":"1 47641U 21012X   22238.76460816 -.00000593  00000-0 -20930-4 0  9990","COUNTRY_CODE":"US","ARG_OF_PERICENTER":"91.3831","BSTAR":"-0.00002093000000","LAUNCH_DATE":"2021-02-16","NORAD_CAT_ID":"47641","MEAN_MOTION_DOT":"-0.00000593","SEMIMAJOR_AXIS":"6925.354","OBJECT_NAME":"STARLINK-2019","INCLINATION":"53.0563","TLE_LINE2":"2 47641  53.0563  11.8199 0001293  91.3831 268.7306 15.06398201 86220","GP_ID":"211053003","MEAN_MOTION_DDOT":"0.0000000000000","EPHEMERIS_TYPE":"0","RA_OF_ASC_NODE":"11.8199"},{"BSTAR":"0.00003205400000","LAUNCH_DATE":"2021-02-16","ARG_OF_PERICENTER":"100.9237","COUNTRY_CODE":"US","TLE_LINE1":"1 47642U 21012Y   22238.89268620  .00000196  00000-0  32054-4 0  9991","RCS_SIZE":"LARGE","PERIAPSIS":"546.242","OBJECT_ID":"2021-012Y","REV_AT_EPOCH":"8549","MEAN_MOTION_DDOT":"0.0000000000000","EPHEMERIS_TYPE":"0","RA_OF_ASC_NODE":"101.2195","GP_ID":"211076613","TLE_LINE2":"2 47642  53.0542 101.2195 0001371 100.9237 259.1906 15.06407097 85494","OBJECT_NAME":"STARLINK-2020","INCLINATION":"53.0542","MEAN_MOTION_DOT":"0.00000196","SEMIMAJOR_AXIS":"6925.327","NORAD_CAT_ID":"47642","TIME_SYSTEM":"UTC","PERIOD":"95.592","ELEMENT_SET_NO":"999","DECAY_DATE":null,"FILE":"3548620","SITE":"AFETR","MEAN_ANOMALY":"259.1906","MEAN_ELEMENT_THEORY":"SGP4","CENTER_NAME":"EARTH","APOAPSIS":"548.141","OBJECT_TYPE":"PAYLOAD","ECCENTRICITY":"0.00013710","MEAN_MOTION":"15.06407097","REF_FRAME":"TEME","CLASSIFICATION_TYPE":"U","EPOCH":"2022-08-26T21:25:28.087680"},{"PERIAPSIS":"546.183","OBJECT_ID":"2021-012Z","REV_AT_EPOCH":"8562","RCS_SIZE":"LARGE","LAUNCH_DATE":"2021-02-16","BSTAR":"0.00018207000000","COUNTRY_CODE":"US","TLE_LINE1":"1 47643U 21012Z   22238.30986249  .00002431  00000-0  18207-3 0  9999","ARG_OF_PERICENTER":"83.8719","SEMIMAJOR_AXIS":"6925.353","MEAN_MOTION_DOT":"0.00002431","OBJECT_NAME":"STARLINK-2022","INCLINATION":"53.0548","NORAD_CAT_ID":"47643","GP_ID":"211048083","EPHEMERIS_TYPE":"0","RA_OF_ASC_NODE":"88.8604","MEAN_MOTION_DDOT":"0.0000000000000","TLE_LINE2":"2 47643  53.0548  88.8604 0001495  83.8719 276.2440 15.06398466 85624","MEAN_ANOMALY":"276.2440","FILE":"3548418","SITE":"AFETR","DECAY_DATE":null,"MEAN_ELEMENT_THEORY":"SGP4","TIME_SYSTEM":"UTC","ELEMENT_SET_NO":"999","PERIOD":"95.592","REF_FRAME":"TEME","MEAN_MOTION":"15.06398466","EPOCH":"2022-08-26T07:26:12.119136","CLASSIFICATION_TYPE":"U","APOAPSIS":"548.254","CENTER_NAME":"EARTH","ECCENTRICITY":"0.00014950","OBJECT_TYPE":"PAYLOAD"},{"ARG_OF_PERICENTER":"78.6605","TLE_LINE1":"1 47644U 21012AA  22238.91988225 -.00000716  00000-0 -29186-4 0  9998","COUNTRY_CODE":"US","BSTAR":"-0.00002918600000","LAUNCH_DATE":"2021-02-16","RCS_SIZE":"LARGE","REV_AT_EPOCH":"8544","PERIAPSIS":"546.144","OBJECT_ID":"2021-012AA","TLE_LINE2":"2 47644  53.0553 106.1181 0001573  78.6605 281.4561 15.06393381 85441","MEAN_MOTION_DDOT":"0.0000000000000","EPHEMERIS_TYPE":"0","RA_OF_ASC_NODE":"106.1181","GP_ID":"211077608","NORAD_CAT_ID":"47644","OBJECT_NAME":"STARLINK-2026","INCLINATION":"53.0553","MEAN_MOTION_DOT":"-0.00000716","SEMIMAJOR_AXIS":"6925.369","PERIOD":"95.593","ELEMENT_SET_NO":"999","TIME_SYSTEM":"UTC","MEAN_ELEMENT_THEORY":"SGP4","FILE":"3548620","DECAY_DATE":null,"SITE":"AFETR","MEAN_ANOMALY":"281.4561","OBJECT_TYPE":"PAYLOAD","ECCENTRICITY":"0.00015730","CENTER_NAME":"EARTH","APOAPSIS":"548.323","CLASSIFICATION_TYPE":"U","EPOCH":"2022-08-26T22:04:37.826400","MEAN_MOTION":"15.06393381","REF_FRAME":"TEME"},{"CENTER_NAME":"EARTH","APOAPSIS":"548.236","OBJECT_TYPE":"PAYLOAD","ECCENTRICITY":"0.00014660","REF_FRAME":"TEME","MEAN_MOTION":"15.06397746","CLASSIFICATION_TYPE":"U","EPOCH":"2022-08-26T19:24:06.864192","TIME_SYSTEM":"UTC","PERIOD":"95.592","ELEMENT_SET_NO":"999","FILE":"3548474","DECAY_DATE":null,"SITE":"AFETR","MEAN_ANOMALY":"272.6031","MEAN_ELEMENT_THEORY":"SGP4","MEAN_MOTION_DDOT":"0.0000000000000","EPHEMERIS_TYPE":"0","RA_OF_ASC_NODE":"76.8533","GP_ID":"211052373","TLE_LINE2":"2 47645  53.0553  76.8533 0001466  87.5125 272.6031 15.06397746 85312","OBJECT_NAME":"STARLINK-2027","INCLINATION":"53.0553","MEAN_MOTION_DOT":"0.00000804","SEMIMAJOR_AXIS":"6925.355","NORAD_CAT_ID":"47645","BSTAR":"0.00007287600000","LAUNCH_DATE":"2021-02-16","ARG_OF_PERICENTER":"87.5125","TLE_LINE1":"1 47645U 21012AB  22238.80841278  .00000804  00000-0  72876-4 0  9993","COUNTRY_CODE":"US","RCS_SIZE":"LARGE","PERIAPSIS":"546.205","REV_AT_EPOCH":"8531","OBJECT_ID":"2021-012AB"}];
